OSCAR 7 (AO-7)          
1 07530U 74089B   20327.88334759 -.00000020  00000-0  15833-3 0  9990
2 07530 101.8244 296.8639 0012516  59.2621 354.9242 12.53646147105846
UOSAT 2 (UO-11)         
1 14781U 84021B   20328.09907681  .00000172  00000-0  27175-4 0  9997
2 14781  97.5899 332.1786 0009520  47.1548 313.0465 14.83213388976347
LUSAT (LO-19)           
1 20442U 90005G   20328.43501547  .00000032  00000-0  28313-4 0  9996
2 20442  98.7128 276.3604 0012640  50.4071 309.8227 14.32967515611380
EYESAT A (AO-27)        
1 22825U 93061C   20327.98364896  .00000010  00000-0  21878-4 0  9996
2 22825  98.9256 334.4478 0007413 276.8261  83.2076 14.30098240416749
ITAMSAT (IO-26)         
1 22826U 93061D   20327.93283875  .00000008  00000-0  20974-4 0  9992
2 22826  98.9197 334.3251 0007931 263.0653  96.9626 14.30435204416703
RADIO ROSTO (RS-15)     
1 23439U 94085A   20327.87763406 -.00000037  00000-0  15882-3 0  9990
2 23439  64.8191 350.0530 0153595  12.5566 347.9119 11.27569188 67040
JAS-2 (FO-29)           
1 24278U 96046B   20328.22042013 -.00000045  00000-0 -69333-5 0  9997
2 24278  98.5887  57.3138 0349679 323.9311  33.8685 13.53100478198606
TECHSAT 1B (GO-32)      
1 25397U 98043D   20327.85573041  .00000009  00000-0  23518-4 0  9999
2 25397  98.7459 268.2570 0001101  14.0355 346.0854 14.23695160162096
ISS (ZARYA)             
1 25544U 98067A   20328.37449380  .00002395  00000-0  51538-4 0  9998
2 25544  51.6457 280.7950 0001843  71.4509  66.0929 15.49043108256698
PCSAT (NO-44)           
1 26931U 01043C   20327.73018655  .00000000  00000-0  31884-4 0  9996
2 26931  67.0511  93.9371 0007024 274.9877  85.0422 14.30595558999713
SAUDISAT 1C (SO-50)     
1 27607U 02058C   20327.88196119  .00000058  00000-0  28652-4 0  9994
2 27607  64.5557 249.9801 0031041 117.3965 243.0301 14.75680686964092
CUTE-1 (CO-55)          
1 27844U 03031E   20328.28402109  .00000083  00000-0  57048-4 0  9992
2 27844  98.6825 333.6255 0009158 320.6348  39.4164 14.22269741902715
CUBESAT XI-IV (CO-57)   
1 27848U 03031J   20328.28663650  .00000063  00000-0  48437-4 0  9996
2 27848  98.6887 334.1951 0009251 334.3444  25.7274 14.21852389902545
MOZHAYETS 4 (RS-22)     
1 27939U 03042A   20328.52612951  .00000260  00000-0  55226-4 0  9997
2 27939  98.1134 101.4541 0012487 205.2926 154.7666 14.66909052917332
CUBESAT XI-V            
1 28895U 05043F   20328.13750762  .00000251  00000-0  56851-4 0  9997
2 28895  98.0320 100.2668 0017706 137.7370 222.5201 14.63827473804054
CUTE-1.7+APD II (CO-65) 
1 32785U 08021C   20328.17919329  .00000484  00000-0  57633-4 0  9996
2 32785  97.5892 309.3510 0012299 333.2595  26.7987 14.88560815681551
DELFI-C3 (DO-64)        
1 32789U 08021G   20327.86595631  .00003375  00000-0  22208-3 0  9992
2 32789  97.4014   5.0142 0013162 128.8498 231.3907 15.08143787685683
SEEDS II (CO-66)        
1 32791U 08021J   20327.97139185  .00000714  00000-0  77180-4 0  9999
2 32791  97.5534 315.2307 0011879 297.9307  62.0709 14.91175647682084
YUBILEINY (RS-30)       
1 32953U 08025A   20328.51269205  .00000028  00000-0  12906-3 0  9993
2 32953  82.5029 179.0049 0019919  66.1892 294.1272 12.43099038567397
KKS-1 (KISEKI)          
1 33499U 09002H   20328.19786640  .00000180  00000-0  34322-4 0  9992
2 33499  98.2939 187.2051 0008795 347.1188  12.9795 14.75581976636422
SWISSCUBE               
1 35932U 09051B   20328.12359626  .00000202  00000-0  56447-4 0  9990
2 35932  98.6084 155.5399 0007707   8.8272 351.3059 14.56450628592962
BEESAT-1                
1 35933U 09051C   20328.51027520  .00000179  00000-0  51384-4 0  9997
2 35933  98.6064 157.8023 0006152  22.6652 337.4816 14.56519352593135
ITUPSAT1                
1 35935U 09051E   20328.04866848  .00000156  00000-0  46916-4 0  9991
2 35935  98.6170 157.5019 0008465  21.1840 338.9705 14.55659336592777
XIWANG-1 (HOPE-1)       
1 36122U 09072B   20327.87435375 -.00000061  00000-0 -49709-4 0  9990
2 36122 100.1084 311.3402 0007089 215.2337 144.8293 13.16357133525715
JUGNU                   
1 37839U 11058B   20327.58844562  .00000321  00000-0  29438-4 0  9997
2 37839  19.9625  43.7575 0018939 332.3743 166.8176 14.12695486471171
SRMSAT                  
1 37841U 11058D   20327.75057639  .00000272  00000-0  40355-5 0  9997
2 37841  19.9714 110.3758 0011812 182.7904 308.9663 14.10678294470519
M-CUBED & EXP-1 PRIME   
1 37855U 11061F   20328.10888542  .00002332  00000-0  12087-3 0  9999
2 37855 101.7269 138.4865 0169580 323.9351  35.0516 15.06759251495566
STRAND-1                
1 39090U 13009E   20328.10983805  .00000059  00000-0  35502-4 0  9996
2 39090  98.4402 168.9858 0009323 165.9911 194.1535 14.35154483405469
SOMP                    
1 39134U 13015E   20327.87500377  .00004383  00000-0  20171-3 0  9993
2 39134  64.8632 123.7536 0019277 221.4132 138.5536 15.21538271420157
BEESAT-3                
1 39135U 13015F   20327.97928398  .00002840  00000-0  14554-3 0  9996
2 39135  64.8665 149.3197 0022992 215.4888 144.4711 15.18556751419675
BEESAT-2                
1 39136U 13015G   20327.95833071  .00002028  00000-0  10785-3 0  9998
2 39136  64.8748 154.9499 0033698 264.5462  95.1820 15.17961655419566
ZACUBE-1 (TSHEPISOSAT)  
1 39417U 13066B   20327.97055619  .00000404  00000-0  56557-4 0  9996
2 39417  97.5755 317.2622 0060074 117.4451 243.2889 14.81359144378506
GOMX-1                  
1 39430U 13066Q   20328.45533924  .00000396  00000-0  79946-4 0  9992
2 39430  97.8029 257.4578 0151972  44.0173 317.3005 14.59473520372997
CUBEBUG-2 (LO-74)       
1 39440U 13066AA  20327.91437558  .00000312  00000-0  50008-4 0  9995
2 39440  97.6502 301.8168 0079793 184.7666 175.2794 14.76095816375952
FUNCUBE-1 (AO-73)       
1 39444U 13066AE  20328.48387211  .00000533  00000-0  71085-4 0  9995
2 39444  97.5681 320.0547 0059280 107.4088 253.3619 14.82231027377517
UWE-3                   
1 39446U 13066AG  20327.90253961  .00000361  00000-0  54090-4 0  9993
2 39446  97.6144 308.9209 0070484 151.8525 208.6526 14.78627967375988
SPROUT                  
1 39770U 14029E   20328.53493638  .00001095  00000-0  12533-3 0  9990
2 39770  97.9049  74.2387 0009241 157.9183 202.2448 14.87988640352712
UNISAT-6                
1 40012U 14033C   20328.16904843  .00000314  00000-0  53704-4 0  9999
2 40012  97.6908 175.2172 0057516 206.2050 153.6246 14.74189015345809
DUCHIFAT-1              
1 40021U 14033M   20327.79728983  .00000693  00000-0  75814-4 0  9992
2 40021  97.9533 260.0769 0013946 121.6681 238.5899 14.91053984349489
QB50P1                  
1 40025U 14033R   20328.36415519  .00000564  00000-0  65536-4 0  9995
2 40025  97.9206 252.6774 0013357 131.9428 228.2930 14.89244367349253
NUDT-PHONESAT           
1 40900U 15049B   20328.31115481  .00003600  00000-0  14757-3 0  9997
2 40900  97.4283 337.9336 0013465 139.8214 340.9529 15.24835394287394
ZDPS 2A                 
1 40901U 15049C   20328.42087087  .00001996  00000-0  99377-4 0  9998
2 40901  97.4635 332.0817 0013184 172.4190 293.7642 15.18684740286693
ZDPS 2B                 
1 40902U 15049D   20328.40380145  .00002119  00000-0  10527-3 0  9995
2 40902  97.4641 329.3389 0013085 169.4047 300.4788 15.18690863286668
XW-2A                   
1 40903U 15049E   20328.42148450  .00003724  00000-0  83943-4 0  9995
2 40903  97.2679  17.3579 0014110  50.9640  69.6381 15.43796172290998
KAITUO 1A               
1 40904U 15049F   20328.42290715  .00000588  00000-0  34185-4 0  9997
2 40904  97.4821 327.1200 0013989 185.9815 280.2290 15.15867277286325
2015-049G               
1 40905U 15049G   20328.44049016  .00000395  00000-0  24885-4 0  9998
2 40905  97.4925 324.2758 0015244 184.4795 334.2054 15.14700540286140
XW-2C                   
1 40906U 15049H   20328.37032222  .00000799  00000-0  44638-4 0  9998
2 40906  97.4819 327.4412 0014593 176.1738 291.3491 15.16290040286336
XW-2D                   
1 40907U 15049J   20328.40484111  .00001342  00000-0  72080-4 0  9998
2 40907  97.4812 327.2117 0013794 172.3800 297.5881 15.16554145286363
LILACSAT-2              
1 40908U 15049K   20328.46253385  .00000707  00000-0  42260-4 0  9993
2 40908  97.4976 325.4027 0015475 185.9804 333.7163 15.14174666286053
XW-2F                   
1 40910U 15049M   20328.41664719  .00001736  00000-0  87811-4 0  9992
2 40910  97.4714 330.0297 0014732 161.2041 304.9679 15.18295835286454
XW-2B                   
1 40911U 15049N   20328.39636644  .00001339  00000-0  72102-4 0  9992
2 40911  97.4811 327.9000 0013747 173.1521 294.9459 15.16477162286255
KAITUO 1B               
1 40912U 15049P   20328.42292839  .00001956  00000-0  91822-4 0  9996
2 40912  97.4486 334.3205 0015653 137.9536 332.4008 15.20734167286877
TIANWANG 1C (TW-1C)     
1 40926U 15051B   20328.42964039  .00094115  00000-0  59077-3 0  9996
2 40926  97.0628  21.9462 0003981 182.4914 304.6434 15.76474680291968
TIANWANG 1A (TW-1A)     
1 40928U 15051D   20328.55372310  .00005704  00000-0  12838-3 0  9997
2 40928  97.0972 352.4865 0009215 336.9242 174.2542 15.43646455289904
LAPAN-A2                
1 40931U 15052B   20328.07198697  .00000570  00000-0 -97400-5 0  9990
2 40931   6.0041 284.2788 0013830 359.9760   0.0125 14.76649881278743
E-ST@R-II               
1 41459U 16025D   20328.39009005  .00002095  00000-0  10709-3 0  9994
2 41459  98.1195  86.8462 0164036  37.2771 323.9722 15.06986151251377
AAUSAT 4                
1 41460U 16025E   20328.40640884  .00003167  00000-0  15444-3 0  9996
2 41460  98.1168  89.7924 0151999  23.9437 336.8770 15.09531851251618
NUSAT-1 (FRESCO)        
1 41557U 16033B   20328.51411039  .00002454  00000-0  91154-4 0  9993
2 41557  97.4006  57.7172 0011885 241.6329 242.2841 15.28470808250068
BEESAT-4                
1 41619U 16040W   20328.10109787  .00003424  00000-0  14198-3 0  9999
2 41619  97.3005  23.7456 0010402 349.1918  10.9095 15.24496012233563
